2022-019D               
1 51827U 22019D   26030.30399539  .00051953  00000+0  77096-3 0  9993
2 51827  97.3759 117.0572 0006619 277.0743  82.9758 15.55035235218172
JILIN-1 GAOFEN 03D14    
1 51831U 22019H   26030.31124792  .00133625  00000+0  11953-2 0  9992
2 51831  97.3765 121.2986 0005677 253.4550 106.6087 15.67926457218444
2022-019J               
1 51832U 22019J   26030.30039532  .00003773  00000+0  17945-3 0  9997
2 51832  97.3628  96.6163 0008538   3.1068 357.0218 15.19757138216854
JILIN-1 GAOFEN 03D16    
1 51834U 22019L   26030.28502361  .00160868  00000+0  12321-2 0  9992
2 51834  97.3764 122.2939 0004732 251.4579 108.6170 15.71620784218517
JILIN-1 GAOFEN 03D11    
1 51835U 22019M   26030.27677287  .00125185  00000+0  11844-2 0  9994
2 51835  97.3798 121.3360 0003906 268.1579  91.9234 15.66570077218439
JILIN-1 GAOFEN 03D15    
1 51839U 22019R   26030.31733506  .00095950  00000+0  11078-2 0  9995
2 51839  97.3761 119.7654 0002989 287.1685  72.9245 15.61590736218361
JILIN-1 GAOFEN 03D10    
1 51840U 22019S   26030.28436266  .00125299  00000+0  11835-2 0  9997
2 51840  97.3761 121.3604 0001482 197.3706 162.7504 15.66617296218452
JILIN-1 GAOFEN 03D12    
1 51841U 22019T   26030.32215410  .00097490  00000+0  11155-2 0  9995
2 51841  97.3736 119.6783 0002780 238.1753 121.9235 15.61821127218364
JILIN-1 GAOFEN 03D18    
1 51844U 22019W   26030.31766027  .00122451  00000+0  11716-2 0  9991
2 51844  97.3746 120.5068 0006396 252.7743 107.2818 15.66283311218325
2022-023F               
1 51951U 22023F   26026.11878691  .00013421  00000+0  54457-3 0  9995
2 51951  63.4623  36.3948 0117842 342.6420  17.0678 15.18687978216147
CZ-4C R/B               
1 52085U 22027B   26030.26164627 -.00000061  00000+0  35863-4 0  9994
2 52085  63.3939  66.0843 0220207  23.1076 337.9681 13.65468537193204
MERIDIAN 10             
1 52145U 22030A   26029.39804161  .00000292  00000+0  00000+0 0  9996
2 52145  62.6657 155.5807 6751035 272.9945  17.8575  2.00602484 28242
OMNI-L1                 
1 52157U 22033A   26030.21580244  .00003636  00000+0  46332-3 0  9995
2 52157  97.8507 112.0836 0005593  27.1679 332.9826 14.82124394207014
ENMAP                   
1 52159U 22033C   26028.68787201  .00000907  00000+0  14226-3 0  9992
2 52159  97.9769 112.9272 0001378  92.3054 267.8313 14.75022179206092
ARCSAT-1                
1 52161U 22033E   26030.19127072  .00019575  00000+0  35335-3 0  9993
2 52161  97.2779 120.8163 0004466 354.5809   5.5393 15.49767149214301
GLOBAL-18               
1 52196U 22034B   26029.87302745  .00026048  00000+0  64528-3 0  9996
2 52196  52.9809 194.7966 0005319 173.7190 186.3880 15.40246163215606
GAOFEN-3 03             
1 52200U 22035A   26030.30620556  .00000027  00000+0  21312-4 0  9990
2 52200  98.4106  40.8645 0000781  90.9137 269.2142 14.42220872200977
DAQI 1                  
1 52257U 22039A   26030.30730329  .00000892  00000+0  20577-3 0  9997
2 52257  98.1356 332.1177 0003161 343.3399  16.7696 14.57616119201856
JILIN-1 GAOFEN 3D05     
1 52390U 22046C   26030.24689880  .00135421  00000+0  12267-2 0  9994
2 52390  97.4819 141.7584 0001044 261.2328  98.8814 15.67624866208887
BRO-6                   
1 52422U 22047AE  26030.24763840  .00018115  00000+0  40949-3 0  9999
2 52422  97.3482 119.4891 0004216 193.7273 166.3861 15.43217049209837
JILIN-1 GAOFEN 3D27     
1 52444U 22048B   26030.29057034  .00065657  00000+0  10224-2 0  9995
2 52444  97.5664 134.4480 0006341 187.0166 173.1000 15.53652528207930
JILIN-1 GAOFEN 3D28     
1 52445U 22048C   26030.24854174  .00072650  00000+0  10898-2 0  9999
2 52445  97.5605 134.2896 0004646 203.7659 156.3380 15.54665285207955
VIGORIDE-3              
1 52760U 22057AE  26029.96566483  .00009224  00000+0  36706-3 0  9993
2 52760  97.6369 166.6463 0007617 246.7828 113.2608 15.25469977204071
ION SCV-006             
1 52761U 22057AF  26029.95760782  .00018458  00000+0  43772-3 0  9991
2 52761  97.5880 172.4893 0018167 252.8987 107.0269 15.41615692204795
SHERPA-AC1              
1 52763U 22057AH  26029.94672200  .00012817  00000+0  39364-3 0  9994
2 52763  97.6452 173.8326 0007324 217.9563 142.1163 15.33838141204491
OMNI-L2                 
1 52771U 22057AR  26030.17321345  .00002892  00000+0  37994-3 0  9990
2 52771  97.4897 101.7372 0007920  64.3913 295.8118 14.80921840199968
STEP CUBE LAB-II        
1 52897U 22065D   26030.33986418  .00001643  00000+0  32944-3 0  9997
2 52897  98.1978 174.8630 0009771  96.7823 263.4491 14.63021739191346
RANDEV                  
1 52898U 22065E   26030.24001499  .00002009  00000+0  39754-3 0  9998
2 52898  98.1965 175.0545 0009088  96.9348 263.2888 14.63390107191072
SNUGLITE-II             
1 52899U 22065F   26029.85266125  .00002051  00000+0  40027-3 0  9995
2 52899  98.1960 175.1302 0008619  98.0192 262.1989 14.64012367190753
MIMAN                   
1 52900U 22065G   26030.25510034  .00001040  00000+0  21845-3 0  9999
2 52900  98.2019 173.6253 0008795  97.0204 263.1997 14.61640920190296
STARLINK-4362           
1 53043U 22077A   26030.25104482 -.00002785  00000+0 -21239-3 0  9993
2 53043  97.6036 212.5895 0001257  93.8175 266.3193 15.01264267195153
LARES-2                 
1 53105U 22080A   26027.30321895 -.00000018  00000+0  00000+0 0  9992
2 53105  70.1796 353.6364 0005326   5.3418 354.7187  6.38964959 82669
GREENCUBE (IO-117)      
1 53109U 22080E   26028.88968445 -.00000003  00000+0  00000+0 0  9992
2 53109  70.1632 346.6837 0009145 318.6843  41.3125  6.42583131 83110
STARLINK-4410           
1 53204U 22084R   26030.17108259  .00014649  00000+0  11417-2 0  9993
2 53204  97.6023  92.5035 0003197  83.8589 276.3000 15.01290550194198
COSMOS 2558             
1 53323U 22089A   26030.15467726  .00061180  00000+0  90432-3 0  9992
2 53323  97.2295 130.9028 0002222 170.9248 189.2047 15.55125218196253
TECMS                   
1 53346U 22090A   26030.29914725  .00006566  00000+0  29690-3 0  9995
2 53346  97.3320 102.2038 0003642  16.2614 343.8738 15.21248635193846
DONGPO 04               
1 53451U 22098H   26030.33347318  .00131204  00000+0  11299-2 0  9996
2 53451  97.5494 158.6714 0001894 193.2377 166.8835 15.68883205193549
DONGPO 02               
1 53452U 22098J   26030.28423772  .00066155  00000+0  99995-3 0  9992
2 53452  97.5379 152.0497 0003146 125.7779 234.3768 15.54488872193245
DONGPO 01               
1 53453U 22098K   26030.28855752  .00063699  00000+0  99016-3 0  9994
2 53453  97.5437 152.7429 0000386 113.1538 246.9755 15.53730370193225
STARLINK-4400           
1 53468U 22099D   26030.26582630 -.00001664  00000+0 -12512-3 0  9993
2 53468  97.6019 152.5948 0004019  73.0410 287.1254 15.01240541190218
STARLINK-4621           
1 53676U 22105AE  26030.20877990  .00000401  00000+0  35783-4 0  9994
2 53676  97.6021 272.5465 0003731  56.8518 303.3064 15.01259603187469
SHERPA-LTC2             
1 53754U 22107BG  26029.85121677  .00009579  00000+0  48523-3 0  9996
2 53754  53.2357  85.2224 0400677 199.5269 158.9978 14.68061961182212
CENTISPACE-1 S3         
1 53757U 22108A   26030.16888751  .00000842  00000+0  20832-3 0  9996
2 53757  53.5322 265.9033 0009032 348.5146  11.5621 14.61069354181355
CENTISPACE-1 S4         
1 53758U 22108B   26030.14713929  .00001007  00000+0  23837-3 0  9991
2 53758  53.5297 264.1459 0008128 335.7962  24.2630 14.61708398181370
BLUEWALKER-3            
1 53807U 22111AL  26030.17201763  .00009153  00000+0  26287-3 0  9993
2 53807  53.2310 321.1090 0008466 104.6897 255.5046 15.36576365188971
YUNHAI-1 03             
1 53877U 22115A   26030.25373071  .00000445  00000+0  17990-3 0  9991
2 53877  98.5502  30.1869 0005868  93.7119 266.4736 14.32611752175767
CENTISPACE-1 S5         
1 54020U 22126A   26030.33119353  .00001523  00000+0  33342-3 0  9991
2 54020  54.9992  44.4910 0014748 114.2535 246.0002 14.62696851176868
CENTISPACE-1 S6         
1 54021U 22126B   26030.25911880  .00000991  00000+0  23297-3 0  9994
2 54021  54.9995  46.0325 0016547 115.4027 244.8682 14.62045325176828
OTB-3-GAZELLE           
1 54023U 22127A   26030.24693398  .00000177  00000+0  66305-4 0  9991
2 54023  98.3863  24.1148 0012059 242.6914 117.3048 14.42624098174475
ASO-S                   
1 54029U 22129A   26030.22762083  .00000315  00000+0  88914-4 0  9999
2 54029  98.2764  37.2821 0014895 152.4957 207.7030 14.51990879175400
HJ-2E                   
1 54035U 22132A   26026.86312429  .00012709  00000+0  53392-3 0  9991
2 54035  97.3829  34.0023 0014129 142.3389 217.8840 15.23478969182933
COSMOS 2561             
1 54109U 22137A   26030.18803647  .00019179  00000+0  36923-3 0  9994
2 54109  96.9415  94.5411 0010542 164.7039 195.4533 15.47863575184971
GONETS-M 23             
1 54150U 22139A   26030.29092021  .00000039  00000+0  21113-3 0  9990
2 54150  82.5028  73.9936 0022088 159.6306 200.5659 12.42885309148517
GONETS-M 24             
1 54151U 22139B   26030.34433196  .00000072  00000+0  45131-3 0  9992
2 54151  82.4940  73.1140 0016987 168.6259 191.5208 12.42862556148526
GONETS-M 25             
1 54152U 22139C   26030.25025824  .00000032  00000+0  15577-3 0  9995
2 54152  82.5009  73.7849 0020939 168.1743 191.9833 12.42861181148511
SKIF-D                  
1 54153U 22139D   26029.35522624  .00000014  00000+0  00000+0 0  9996
2 54153  89.9605  96.7158 0007083 243.9064 116.0973  5.00439074 57167
MATS                    
1 54227U 22147A   26030.27712510  .00006150  00000+0  44500-3 0  9999
2 54227  97.6814  32.5819 0011638 312.7879  47.2367 15.04327337177022
JILIN-1 GAOFEN 03D54    
1 54254U 22155D   26030.29357699  .00090271  00000+0  10471-2 0  9999
2 54254  97.6002 170.0794 0003469 148.0126 212.1342 15.61487339178589
EOS-6 (OCEANSAT-3)      
1 54361U 22158A   26029.38056307  .00000969  00000+0  27841-3 0  9996
2 54361  98.3518 129.4671 0001804  57.6847 302.4520 14.47022427167761
